STARLINK-1137
1 15092C 20006BA  21326.16284341  .00005809  00000-0  38926-3 0  3268
2 15092  53.0545  88.0153 0001258  72.8442 348.0520 15.06387865    14
